1 00005U 58002B   23305.92295697  .00000177  00000-0  23283-3 0  9998
2 00005  34.2480  30.7547 1843480 139.6316 235.6793 10.85103061339129
1 00011U 59001A   23305.84239525  .00000540  00000-0  28655-3 0  9996
2 00011  32.8663 104.5544 1460793  14.5191 349.3137 11.87363740421351
1 00012U 59001B   23305.82661935  .00000474  00000-0  28537-3 0  9994
2 00012  32.9016 356.0614 1659498  79.8448 298.4438 11.45849122421229
1 00016U 58002A   23305.86436247  .00000575  00000-0  84139-3 0  9990
2 00016  34.2566 195.8088 2020084  34.6223 337.0651 10.48946338588237
1 00020U 59007A   23305.89004651  .00000872  00000-0  34705-3 0  9998
2 00020  33.3467 106.9064 1656960 331.2653  20.5684 11.57921938373297
1 00022U 59009A   23305.77461132  .00007571  00000-0  49401-3 0  9992
2 00022  50.2813  61.2329 0122435 302.5728  56.3447 15.02778878655000
1 00029U 60002B   23305.86848860  .00001212  00000-0  20513-3 0  9990
2 00029  48.3789 249.2350 0023149 108.6709 251.6719 14.75677357400431
1 00045U 60007A   23305.59236042  .00000540  00000-0  16174-3 0  9997
2 00045  66.6962  12.8185 0248582 139.8434 222.1336 14.34422354242483
1 00046U 60007B   23305.77627564  .00002228  00000-0  44168-3 0  9990
2 00046  66.6904 314.2922 0212379 291.0631  66.7884 14.50998660317741
1 00047U 60007C   23305.79940884  .00001260  00000-0  30507-3 0  9993
2 00047  66.6642  98.3372 0218623 122.4448 239.8006 14.43112387312404
1 00050U 60009B   23305.54594538 -.00000082  00000-0  41778-4 0  9998
2 00050  47.2307 257.2292 0113501  37.4024 323.4600 12.20133715820654
1 00051U 60009C   23305.93104366  .00000002  00000-0  83383-3 0  9996
2 00051  47.2103 134.3866 0106287 226.6083 132.5816 12.18307215814343
1 00052U 60009D   76059.20960648 +.00000225 +00000-0 +10000-3 0  9997
2 00052 047.1450 002.7500 1406000 181.1400 000.0000 12.17682743007435
1    53U 60009E   23305.59728742 -.00000083  00000-0  28887-4 0  9999
2    53  47.2781  59.0872 0100340 123.1825 237.8633 12.17317293818656
1 00058U 60013A   23305.70790029  .00000123  00000-0  52941-4 0  9991
2 00058  28.3290 322.9646 0164863 191.3768 168.3019 13.46360505104796
1 00059U 60013B   23305.86130317  .00000159  00000-0  90754-4 0  9990
2 00059  28.2504   7.3661 0188930 190.4793 169.1777 13.53044746113271
1 00082U 61004B   23305.74383028  .00000736  00000-0  64621-3 0  9997
2 00082  38.8625 315.8033 1165065 270.8570  75.9094 12.26381760959069
1 00085U 61004C   23305.90545480  .00051733  00000-0  82040-2 0  9997
2 00085  38.7508 151.8840 0298645 154.6068 206.9699 14.45782394107182
1 00107U 61013A   23305.67457534  .00007002  00000-0  89651-3 0  9994
2 00107  28.7918  48.8701 0528767 232.1039 123.0574 14.13412536140319
1 00115U 60002D   23305.79548366  .00003613  00000-0  41617-3 0  9991
2 00115  48.1639  99.1996 0033100 288.3946  71.3370 14.87393081374919
1 00116U 61015A   23305.76204592  .00000147  00000-0  17076-3 0  9995
2 00116  66.8097  75.3808 0080639 228.3268 131.0891 13.91960222163293
1 00117U 61015B   23305.96234964  .00000023  00000-0  78423-4 0  9991
2 00117  66.8118 180.8173 0084066 249.6535 109.5497 13.89972662160877
1 00118U 61015C   23305.95843938  .00000176  00000-0  16162-3 0  9998
2 00118  66.7628 289.6405 0088112 229.6333 129.7035 14.02038216181777
1 00119U 61015D   23305.86660582  .00001486  00000-0  63619-3 0  9995
2 00119  66.7294 356.7641 0109554 236.2340 122.8282 14.24449767221674
1 00120U 61015E   23305.66013973  .00000986  00000-0  41071-3 0  9993
2 00120  66.7073  52.0039 0117381 334.7348  24.8034 14.26741434211434
1 00121U 61015F   23305.94576174  .00000133  00000-0  13869-3 0  9990
2 00121  66.7468 262.9640 0098351 311.5208  47.7467 13.99874652192223
1 00122U 61015G   23305.71651432  .00009043  00000-0  12759-2 0  9992
2 00122  66.7514  50.9871 0070822 251.0074 108.3365 14.75889591251634
1 00123U 61015H   23305.78592749  .00001534  00000-0  48935-3 0  9998
2 00123  66.6841  99.0323 0120586 252.2979 106.4931 14.38445567241517
1 00124U 61015J   23305.28493475  .00002330  00000-0  86976-3 0  9992
2 00124  66.5444 265.9086 0066682  77.6948 283.1605 14.32440419221409
1 00125U 61015K   23305.70718324  .00000530  00000-0  36148-3 0  9999
2 00125  66.8748 166.4445 0069504  43.2027 317.4483 14.06258009182412
